#cP2021  4  5  0  0  0.00000000      96 ORBIT IGb14 HLM  IGS
## 2152  86400.00000000   900.00000000 59309 0.0000000000000
+   32   G01G02G03G04G05G06G07G08G09G10G11G12G13G14G15G16G17
+        G18G19G20G21G22G23G24G25G26G27G28G29G30G31G32  0  0
+          0  0  0  0  0  0  0  0  0  0  0  0  0  0  0  0  0
+          0  0  0  0  0  0  0  0  0  0  0  0  0  0  0  0  0
+          0  0  0  0  0  0  0  0  0  0  0  0  0  0  0  0  0
++         2  2  2  2  2  2  2  2  2  1  2  1  2  2  2  2  2
++         2  1  1  2  2  2  2  2  1  2  2  2  2  2  2  0  0
++         0  0  0  0  0  0  0  0  0  0  0  0  0  0  0  0  0
++         0  0  0  0  0  0  0  0  0  0  0  0  0  0  0  0  0
++         0  0  0  0  0  0  0  0  0  0  0  0  0  0  0  0  0
%c G  cc GPS ccc cccc cccc cccc cccc ccccc ccccc ccccc ccccc
%c cc cc ccc ccc cccc cccc cccc cccc ccccc ccccc ccccc ccccc
%f  1.2500000  1.025000000  0.00000000000  0.000000000000000
%f  0.0000000  0.000000000  0.00000000000  0.000000000000000
%i    0    0    0    0      0      0      0      0         0
%i    0    0    0    0      0      0      0      0         0
/* FINAL ORBIT COMBINATION FROM WEIGHTED AVERAGE OF:        
/* cod emr esa gfz grg jpl mit ngs sio                      
/* REFERENCED TO IGS TIME (IGST) AND TO WEIGHTED MEAN POLE: 
/* PCV:IGS14_2148 OL/AL:FES2004  NONE     Y  ORB:CMB CLK:CMB
*  2021  4  5  6  0  0.00000000
PG01 -14055.424227  22308.296535     73.403271    724.260903  4  6  6  98       
PG02  17491.103640  -5784.034213 -18493.674327   -592.792767  5  4     90       
PG03 -12950.243123  12914.543717 -19299.332010   -127.982258  7  5     81       
PG04  -5640.364368  17977.372203 -18692.762612   -190.173525  6  6  5  70       
PG05  25456.072348  -4642.056454   6264.354362    -38.202859  3  5  2  49       
PG06  12280.779857   8071.534537 -22061.930444      5.019523  3  5  5  41       
PG07  -3709.520565  22959.185100  12698.744892    112.341221  5  6  5  79       
PG08 -11351.034548  10256.058642  21679.273737    -16.364176  4  6  6  84       
PG09   4047.199984  23667.410967 -11391.721626   -336.597338  6  7  4  80       
PG10 -17329.979684 -11824.137501  16560.955683    -95.560479  3  6  3  72       
PG11  -8997.769236  23048.774449   9697.371028     20.810343  4 11  7  88       
PG12  16619.903731 -10620.194353 -17970.314858    -23.596718  4  5  3  92       
PG13  15678.520025    -53.212489  21324.029439    116.133474  3  5  2  65       
PG14  15813.951766  13061.016698  16875.890540     97.969329  2  7  3  58       
PG15  10611.507470 -11962.426349  20812.702324   -158.342433  6  6  5  41       
PG16 -26534.683188   -723.181359   3531.829095   -304.830453  1  5  6  99       
PG17  13573.599518  22330.231304  -4311.733252    421.305010  4  4  5  70       
PG18   1421.578074 -21636.625524  15291.371200    351.520570  6  9  6  66       
PG19  16298.730107  16761.107982 -12984.250702    -17.095549  2  5  5  32       
PG20   3958.696552 -15868.892498  20832.028562    523.483355  3  6  2  56       
PG21 -16891.512781  18240.953988   9371.164107    108.598962  2  4  5  83       
PG22 -20881.589669  10524.466857 -12223.144027   -645.070511  5  6  4  86       
PG23  -5667.181983 -14811.148814  21292.766287    115.045531  6  6  6  76       
PG24  15510.029895 -20432.797535   5790.869651      0.158620  5  6  5  91       
PG25   2045.537335 -15244.137407 -21904.016750    112.520723  5  5  3  93       
PG26 -25528.392007  -4376.764261  -6547.824399     67.842498  3     5 107       
PG27 -17006.027042  -2818.104008  20141.883480   -107.031273     3  4  74       
PG28  17211.354438  13012.001732  15915.141364    591.553489  6  4  5  62       
PG29  -2907.788142 -24048.730029 -10890.659691   -324.469133  6 10  5  98       
PG30   7193.109557  15895.628208  20018.346932   -408.469848  3  5  6  65       
PG31 -14704.470799  -5326.361435 -21590.034046   -109.757205  3  6  2  98       
PG32 -16066.022529 -20350.142481  -6058.339574     21.990108  2  7  5  93       
*  2021  4  5  6 15  0.00000000
PG01 -14139.575337  22023.117042   2988.484313    724.252304  3  5  6  87       
PG02  16606.210413  -3640.472359 -19763.749655   -592.796053  5  4     90       
PG03 -15058.883500  12797.639426 -17771.151902   -127.991937  7  5  1  97       
PG04  -6798.376561  16084.029530 -19991.879913   -190.175244  6  6  5  77       
PG05  26039.220055  -4414.207864   3503.185557    -38.204019  4  6  2  74       
PG06  11015.048046  10248.901142 -21820.398087      5.021853  3  5  5  56       
PG07  -4583.001804  23938.241213  10269.048918    112.351835  5  6  5  85       
PG08 -12668.190232   8139.903675  21873.475289    -16.365459  3  5  5 101       
PG09   3112.802353  22562.327528 -13706.956009   -336.599830  6  7  3  76       
PG10 -15368.102332 -11964.754815  18293.688959    -95.567411  4  6  2  82       
PG11  -9269.052815  21738.818781  12038.188805     20.819989  4 10  7  93       
PG12  18516.656302 -10354.888365 -16139.345549    -23.601138  4  6  4  91       
PG13  16560.248424   2199.986435  20545.899761    116.137521  2  5  2  75       
PG14  13782.177636  13132.364068  18519.157680     97.967569  2  7  3  77       
PG15  12135.814680 -10000.519215  21042.221176   -158.340165  5  5  5  48       
PG16 -26783.102698   -927.654407    690.385285   -304.835777  2  5  6  98       
PG17  13569.658945  22753.487327  -1437.479512    421.310447  4  4  5  76       
PG18   2415.236403 -22937.932355  13110.764760    351.520797  6  9  6  78       
PG19  16692.996446  18009.184741 -10535.274082    -17.091082  2  6  4  66       
PG20   6308.243544 -16115.886104  20023.287137    523.483319  2  6  3  65       
PG21 -16627.531952  17107.517827  11882.476277    108.601667  2  5  5  79       
PG22 -22204.381073  10358.764939  -9820.842478   -645.062875  5  6  4  98       
PG23  -3205.538035 -14923.392721  21718.728318    115.044019  5  6  6  73       
PG24  15446.071252 -19513.286242   8453.833610      0.157868  6  5  5  92       
PG25   4477.259208 -15218.629372 -21527.999916    112.527354  5  5  3  95       
PG26 -24654.520440  -4685.104672  -9157.048511     67.847236  4  1  5 105       
PG27 -18069.987878  -4801.155642  18840.988367   -107.037534     3  5  85       
PG28  15367.831048  12987.948049  17794.319659    591.548159  5  4  6  84       
PG29  -2159.026454 -22882.753229 -13320.296334   -324.475126  6  9  5  98       
PG30   5916.333094  17726.174602  18841.504232   -408.474559  3  6  5  83       
PG31 -13430.073239  -7432.837074 -21756.730659   -109.759272  3  6  2 104       
PG32 -16131.364078 -20944.334308  -3285.814745     21.990332  3  7  5  98       
*  2021  4  5  6 30  0.00000000
PG01 -14091.445564  21446.030599   5850.818487    724.243588  3  5  6  99       
PG02  15782.724484  -1334.007103 -20674.230998   -592.799048  5  5     90       
PG03 -16982.142937  12780.719982 -15937.759879   -128.001525  7  5  2  81       
PG04  -8120.159841  14145.254543 -20946.365997   -190.176979  6  6  5  78       
PG05  26319.707825  -4186.727017    682.254782    -38.205245  4  6  2  89       
PG06   9893.497588  12449.586065 -21201.060110      5.024213  4  5  5  78       
PG07  -5281.387139  24705.821772   7660.404338    112.362713  5  6  5  73       
PG08 -14094.734461   6098.765742  21691.110296    -16.366704  3  4  5  79       
PG09   1982.841025  21302.192875 -15786.893103   -336.602410  6  7  4  76       
PG10 -13238.535579 -12223.287335  19717.239746    -95.574379  4  6  2  84       
PG11  -9607.904525  20186.309198  14170.891084     20.829285  5  9  7  78       
PG12  20205.503348 -10193.307111 -14033.644558    -23.605764  4  6  4  99       
PG13  17511.709985   4303.937062  19411.036044    116.141888  2  5  1  76       
PG14  11588.675419  13311.612792  19843.693920     97.965816  3  7  4  80       
PG15  13749.472717  -8109.784016  20897.534401   -158.337773  5  5  5  66       
PG16 -26723.160702  -1108.200871  -2162.638270   -304.841172  3  5  7 103       
PG17  13426.326264  22890.950108   1461.638583    421.315866  3  5  4  79       
PG18   3218.289478 -24059.443514  10703.771438    351.521071  6  9  6  85       
PG19  17022.559308  18982.357674  -7908.232359    -17.086712  3  6  4  62       
PG20   8536.708263 -16452.475003  18866.320480    523.482581  2  5  3  46       
PG21 -16317.346673  15718.124702  14191.453513    108.604097  2  5  5  98       
PG22 -23253.503841  10211.680612  -7246.353448   -645.055324  5  6  4  85       
PG23   -725.772403 -15167.097459  21770.385036    115.042499  5  6  7  45       
PG24  15312.915344 -18317.808597  10966.653792      0.158200  6  5  4  93       
PG25   6847.829280 -15317.320554 -20789.024179    112.534004  5  5  3 109       
PG26 -23514.500224  -5066.611681 -11611.369795     67.851958  5  2  6 105       
PG27 -19147.117023  -6581.301034  17215.256431   -107.043757     4  6  86       
PG28  13337.394779  13058.030016  19377.444080    591.543037  5  4  6  93       
PG29  -1216.978519 -21532.278147 -15520.827516   -324.480923  6  8  5 110       
PG30   4798.674915  19484.143605  17339.606030   -408.479237  3  6  5  96       
PG31 -12264.996567  -9604.490092 -21551.848734   -109.761222  4  7  2  86       
PG32 -16051.174428 -21271.906410   -457.227051     21.990578  3  7  4  95       
EOF
